BEIDOU 3 (C01)          
1 36287U 10001A   21037.80706840 -.00000290  00000-0  00000-0 0  9996
2 36287   1.6848  40.6988 0003030  98.3598  69.0416  1.00269770 40550
BEIDOU 5 (C06)          
1 36828U 10036A   21036.23626512 -.00000082  00000-0  00000-0 0  9997
2 36828  54.1730 180.8103 0102300 233.1887 281.1226  1.00243045 38583
BEIDOU 6 (C04)          
1 37210U 10057A   21036.04874225 -.00000115  00000-0  00000-0 0  9998
2 37210   0.9095  52.1020 0005336 196.3768  64.5537  1.00271824 37640
BEIDOU 7 (C07)          
1 37256U 10068A   21037.80796025 -.00000208  00000-0  00000-0 0  9999
2 37256  51.0831 295.5519 0081892 216.8343  32.5602  1.00297717 37185
BEIDOU 8 (C08)          
1 37384U 11013A   21036.23392831 -.00000183  00000-0  00000-0 0  9997
2 37384  59.5925  59.2346 0055062 206.5723  72.4094  1.00291428 36039
BEIDOU 9 (C09)          
1 37763U 11038A   21037.86944213 -.00000054  00000-0  00000-0 0  9999
2 37763  54.4630 183.2320 0077307 223.7047 136.2674  1.00291671 35035
BEIDOU 10 (C10)         
1 37948U 11073A   21037.87662450 -.00000149  00000-0  00000-0 0  9999
2 37948  51.1860 295.1653 0069918 215.7333  37.5531  1.00282895 33782
BEIDOU 11 (C05)         
1 38091U 12008A   21037.43125574  .00000048  00000-0  00000-0 0  9998
2 38091   1.9757  71.5794 0004021 250.3363  28.7928  1.00273696 32852
BEIDOU 12 (C11)         
1 38250U 12018A   21037.77602914 -.00000084  00000-0  00000-0 0  9992
2 38250  56.7566   9.9270 0024260 250.6931 269.9104  1.86234379 59853
BEIDOU 13 (C12)         
1 38251U 12018B   21037.69496973 -.00000085  00000-0  00000-0 0  9991
2 38251  56.6801   9.2867 0015297 255.9260 254.7757  1.86234219 59852
BEIDOU 15 (C14)         
1 38775U 12050B   21037.60588203 -.00000047  00000-0  00000-0 0  9995
2 38775  55.1501 128.3959 0013440 318.4753 329.8598  1.86232396 57229
BEIDOU 16 (C02)         
1 38953U 12059A   21037.55535362 -.00000183  00000-0  00000-0 0  9995
2 38953   1.6563  84.8467 0009639 261.4800  74.4511  1.00269656 30422
BEIDOU 17 (C31)         
1 40549U 15019A   21037.80362637 -.00000185  00000-0  00000-0 0  9991
2 40549  52.7016 318.4998 0036671 189.2946  12.4448  1.00294680 21465
BEIDOU 18 (C57)         
1 40748U 15037A   21037.87101238 -.00000088  00000-0  00000-0 0  9999
2 40748  55.9447   8.4464 0004942 331.5502 207.2317  1.86233484 37688
BEIDOU 19 (C58)         
1 40749U 15037B   21037.68846579 -.00000087  00000-0  00000-0 0  9992
2 40749  55.9484   8.4396 0007239 305.6998 247.3581  1.86232279 37675
BEIDOU 20 (C18)         
1 40938U 15053A   21037.67896612 -.00000111  00000-0  00000-0 0  9990
2 40938  52.2618 281.5568 0045950 190.8809   4.9942  1.00266097 19743
BEIDOU IGSO-6 (C13)     
1 41434U 16021A   21037.51993677 -.00000136  00000-0  00000-0 0  9997
2 41434  57.3742  58.0225 0041339 215.4909 143.9983  1.00295340 17850
BEIDOU-2 G7 (C03)       
1 41586U 16037A   21037.82901049 -.00000364  00000-0  00000-0 0  9991
2 41586   1.9803  69.6713 0009133   0.6252 115.8242  1.00273896 17175
BEIDOU-3 M1 (C19)       
1 43001U 17069A   21037.55381645 -.00000046  00000-0  00000-0 0  9992
2 43001  55.3045 128.3328 0009245 283.9116 125.8820  1.86231700 22164
BEIDOU-3 M2 (C20)       
1 43002U 17069B   21037.87475466 -.00000049  00000-0  00000-0 0  9996
2 43002  55.3044 128.3565 0007580 308.6107 359.9825  1.86231500 22154
BEIDOU-3 M3 (C27)       
1 43107U 18003A   21037.70395545 -.00000087  00000-0  00000-0 0  9994
2 43107  55.3852   9.5907 0004093  24.1251 335.8314  1.86232575 20914
BEIDOU-3 M4 (C28)       
1 43108U 18003B   21037.63704544 -.00000087  00000-0  00000-0 0  9990
2 43108  55.3785   9.5839 0004269 258.2669 102.0112  1.86232562 20929
BEIDOU-3 M5 (C21)       
1 43207U 18018A   21037.01013385 -.00000041  00000-0  00000-0 0  9994
2 43207  55.2625 128.4808 0005521 328.2100  31.7718  1.86231317 20295
BEIDOU-3 M6 (C22)       
1 43208U 18018B   21037.61380591 -.00000047  00000-0  00000-0 0  9993
2 43208  55.2623 128.4653 0007827 294.9714  64.9612  1.86231485 20302
BEIDOU-3 M7 (C29)       
1 43245U 18029A   21037.83742653 -.00000090  00000-0  00000-0 0  9999
2 43245  55.3213   7.3825 0001664 299.1878  60.3847  1.86232659 19454
BEIDOU-3 M8 (C30)       
1 43246U 18029B   21037.61692819 -.00000089  00000-0  10000-3 0  9996
2 43246  55.3188   7.4228 0005292 334.2044 283.6154  1.86232656 19448
BEIDOU IGSO-7 (C16)     
1 43539U 18057A   21037.80535483 -.00000117  00000-0  00000-0 0  9994
2 43539  55.0554 180.1293 0031773 212.2683 147.4007  1.00253236  9542
BEIDOU-3 M9 (C23)       
1 43581U 18062A   21037.87505503  .00000085  00000-0  00000+0 0  9996
2 43581  54.4562 249.0797 0002702 317.4156 323.2454  1.86231917 17194
BEIDOU-3 M10 (C24)      
1 43582U 18062B   21037.75222398  .00000086  00000-0  00000-0 0  9994
2 43582  54.4557 249.0738 0006567  11.0796 278.4675  1.86232304 17191
BEIDOU-3 M11 (C25)      
1 43602U 18067A   21037.75161759  .00000088  00000-0  00000-0 0  9997
2 43602  54.5282 247.6450 0007476   4.3102 327.2562  1.86231642 16686
BEIDOU-3 M12 (C26)      
1 43603U 18067B   21037.15596226  .00000087  00000-0  00000-0 0  9992
2 43603  54.5273 247.6339 0004681 358.7702 203.9281  1.86231615 16699
BEIDOU-3 M13 (C32)      
1 43622U 18072A   21037.50756264 -.00000046  00000-0  00000-0 0  9994
2 43622  55.2289 128.0371 0005712 279.6412 189.1095  1.86231519 16217
BEIDOU-3 M14 (C33)      
1 43623U 18072B   21037.33230948 -.00000044  00000-0  00000-0 0  9990
2 43623  55.2289 128.0350 0003928 308.1226 133.3651  1.86231528 16212
BEIDOU-3 M15 (C34)      
1 43647U 18078A   21037.75192461 -.00000090  00000-0  10000-3 0  9990
2 43647  55.2142   7.5881 0007361 341.3014 276.7074  1.86232815 15721
BEIDOU-3 M16 (C35)      
1 43648U 18078B   21037.34328348 -.00000087  00000-0  10000-3 0  9997
2 43648  55.2118   7.6101 0005344 347.3704 265.3419  1.86232094 15739
BEIDOU-3 G1 (C59)       
1 43683U 18085A   21037.85417912 -.00000287  00000-0  00000-0 0  9994
2 43683   1.2847 241.0379 0002860  27.7100 315.9202  1.00267316  8441
BEIDOU-3 M17 (C36)      
1 43706U 18093A   21037.67611141  .00000086  00000-0  00000-0 0  9995
2 43706  54.5363 248.9354 0008033 280.4536  91.7843  1.86231929 15093
BEIDOU-3 M18 (C37)      
1 43707U 18093B   21037.39031619  .00000086  00000-0  00000-0 0  9991
2 43707  54.5376 248.9372 0007648 310.4756 320.8803  1.86232171 15088
BEIDOU-3 IGSO-1 (C38)   
1 44204U 19023A   21037.76565602 -.00000202  00000-0  00000-0 0  9994
2 44204  55.8311  58.3394 0017464 204.6555 264.0869  1.00278905  6744
BEIDOU-2 G8             
1 44231U 19027A   21037.87956153 -.00000255  00000-0  00000-0 0  9993
2 44231   0.4704 312.5896 0006716 267.9880  17.7966  1.00268553  6467
BEIDOU-3 IGSO-2 (C39)   
1 44337U 19035A   21037.80078741 -.00000116  00000-0  00000-0 0  9996
2 44337  55.0857 176.1738 0016972 185.2112 171.6257  1.00270780  6078
BEIDOU-3 M23 (C45)      
1 44542U 19061A   21037.66263889  .00000087  00000-0  10000-3 0  9996
2 44542  54.7619 248.9806 0008646 342.9457  64.4754  1.86231549  9354
BEIDOU-3 M24 (C46)      
1 44543U 19061B   21037.68703744  .00000087  00000-0  10000-3 0  9998
2 44543  54.7599 248.9498 0005744 341.6981 352.7525  1.86231677  9354
BEIDOU-3 IGSO-3         
1 44709U 19073A   21037.72526990 -.00000176  00000-0  00000-0 0  9992
2 44709  58.0450 301.5030 0019198 193.9566   9.9816  1.00264359  4835
BEIDOU-3 M21            
1 44793U 19078A   21037.61786567 -.00000089  00000-0  10000-3 0  9993
2 44793  55.0652   7.6742 0007115 348.5741 134.1631  1.86232340  8213
BEIDOU-3 M22            
1 44794U 19078B   21037.56987373 -.00000089  00000-0  10000-3 0  9996
2 44794  55.0399   7.6797 0005163 339.0609  22.2318  1.86232923  8217
BEIDOU-3 M19            
1 44864U 19090A   21037.36836338 -.00000045  00000-0  00000-0 0  9998
2 44864  55.1637 128.2789 0015508 261.6469 159.1616  1.86231810  7797
BEIDOU-3 M20            
1 44865U 19090B   21037.60307185 -.00000047  00000-0  00000-0 0  9991
2 44865  55.1641 128.3026 0014294 277.5985  30.4938  1.86231743  7779
BEIDOU-3 G2             
1 45344U 20017A   21037.90967503 -.00000144  00000-0  00000-0 0  9992
2 45344   2.6057 333.2276 0001675  40.6356 170.8354  1.00269611  3648
BEIDOU-3 G3             
1 45807U 20040A   21037.94457641 -.00000359  00000-0  00000-0 0  9991
2 45807   2.5844 298.3955 0010004  13.0614 276.3929  1.00272377  2469
